{"type":"FeatureCollection","name":"Zonas de cobertura AKDemia autoescuela","source":"https://cdn.buenosaires.gob.ar/datosabiertos/datasets/barrios/barrios.geojson","license":"CC BY 2.5 AR","note":"Geometrías oficiales de los barrios incluidos en la cobertura comercial.","features":[{"type":"Feature","properties":{"name":"Villa Urquiza","source":"Buenos Aires Data - Barrios CABA"},"geometry":{"type":"MultiPolygon","coordinates":[[[[-58.480977,-34.562643],[-58.480225,-34.563236],[-58.480374,-34.563316],[-58.480068,-34.563507],[-58.47991,-34.563605],[-58.479722,-34.563696],[-58.479541,-34.56377],[-58.479055,-34.563932],[-58.479312,-34.564066],[-58.479118,-34.564238],[-58.478148,-34.565103],[-58.477178,-34.565968],[-58.476356,-34.5667],[-58.47619,-34.566849],[-58.475124,-34.566219],[-58.474666,-34.566735],[-58.474663,-34.566738],[-58.474594,-34.566811],[-58.473607,-34.566566],[-58.473533,-34.566552],[-58.472988,-34.566436],[-58.473368,-34.566662],[-58.472783,-34.567353],[-58.471961,-34.568324],[-58.471176,-34.569252],[-58.470416,-34.57015],[-58.469586,-34.571131],[-58.468841,-34.572012],[-58.468081,-34.572909],[-58.468288,-34.573027],[-58.469134,-34.573509],[-58.469926,-34.57396],[-58.470865,-34.574496],[-58.471806,-34.575033],[-58.471958,-34.57512],[-58.472742,-34.575572],[-58.472887,-34.575655],[-58.473547,-34.576033],[-58.473685,-34.576108],[-58.473734,-34.576135],[-58.473829,-34.576186],[-58.474619,-34.576636],[-58.474851,-34.576768],[-58.474979,-34.576841],[-58.475007,-34.576857],[-58.475594,-34.57719],[-58.47715,-34.578073],[-58.477333,-34.578177],[-58.477773,-34.578427],[-58.478199,-34.578669],[-58.478655,-34.578928],[-58.478988,-34.579125],[-58.479233,-34.579269],[-58.480183,-34.57982],[-58.48031,-34.579893],[-58.480484,-34.579994],[-58.480994,-34.580289],[-58.481129,-34.580368],[-58.482146,-34.58096],[-58.483014,-34.581465],[-58.483134,-34.581535],[-58.484121,-34.582109],[-58.484747,-34.582472],[-58.485095,-34.582675],[-58.485824,-34.583099],[-58.48596,-34.583177],[-58.487033,-34.583799],[-58.488104,-34.584419],[-58.488794,-34.584818],[-58.489506,-34.584205],[-58.489832,-34.583924],[-58.490264,-34.583552],[-58.490438,-34.583403],[-58.49052,-34.583332],[-58.491042,-34.582881],[-58.491752,-34.582269],[-58.49194,-34.582107],[-58.492405,-34.581705],[-58.492543,-34.581593],[-58.493246,-34.581023],[-58.493453,-34.580885],[-58.493619,-34.580774],[-58.494329,-34.580233],[-58.49446,-34.580133],[-58.495286,-34.579504],[-58.495417,-34.579405],[-58.495546,-34.579304],[-58.495564,-34.579291],[-58.495816,-34.579098],[-58.495907,-34.579028],[-58.496362,-34.578671],[-58.497024,-34.57815],[-58.497218,-34.577998],[-58.49786,-34.577496],[-58.498035,-34.57736],[-58.498846,-34.576729],[-58.499657,-34.576097],[-58.499827,-34.575965],[-58.500151,-34.575713],[-58.500692,-34.575292],[-58.501329,-34.574798],[-58.501476,-34.574684],[-58.501736,-34.574484],[-58.502283,-34.574061],[-58.502947,-34.573549],[-58.502995,-34.573518],[-58.503948,-34.572948],[-58.504196,-34.572805],[-58.505127,-34.572267],[-58.50534,-34.572145],[-58.505546,-34.572027],[-58.50586,-34.571855],[-58.506486,-34.571512],[-58.506675,-34.571405],[-58.50679,-34.571341],[-58.506874,-34.571289],[-58.507122,-34.571137],[-58.507636,-34.570846],[-58.50788,-34.570708],[-58.50798,-34.570651],[-58.509041,-34.569997],[-58.508818,-34.569509],[-58.508605,-34.569392],[-58.508418,-34.5693],[-58.507317,-34.568759],[-58.506263,-34.568241],[-58.505209,-34.567723],[-58.505072,-34.567656],[-58.504657,-34.567452],[-58.504241,-34.567248],[-58.504101,-34.567175],[-58.504095,-34.567171],[-58.503957,-34.5671],[-58.503332,-34.566793],[-58.502712,-34.56649],[-58.502561,-34.566416],[-58.501998,-34.566142],[-58.501877,-34.566084],[-58.501438,-34.565872],[-58.500863,-34.565594],[-58.500235,-34.565291],[-58.499713,-34.565041],[-58.49914,-34.564763],[-58.499053,-34.564721],[-58.497991,-34.564209],[-58.497861,-34.564146],[-58.496823,-34.563646],[-58.496593,-34.563536],[-58.495417,-34.562971],[-58.494289,-34.562429],[-58.49413,-34.562353],[-58.492884,-34.561757],[-58.49193,-34.561302],[-58.491834,-34.561442],[-58.490991,-34.562651],[-58.490518,-34.562424],[-58.490401,-34.562367],[-58.490043,-34.562196],[-58.489277,-34.561827],[-58.489086,-34.561738],[-58.48831,-34.561373],[-58.488292,-34.561365],[-58.488274,-34.561356],[-58.488131,-34.561287],[-58.48732,-34.560895],[-58.487175,-34.560827],[-58.486389,-34.560458],[-58.486255,-34.560394],[-58.485301,-34.559939],[-58.485166,-34.559875],[-58.485018,-34.559804],[-58.484989,-34.55979],[-58.48435,-34.559484],[-58.483701,-34.559172],[-58.48356,-34.559104],[-58.481158,-34.5625],[-58.480977,-34.562643]]]]}},{"type":"Feature","properties":{"name":"Belgrano","source":"Buenos Aires Data - Barrios CABA"},"geometry":{"type":"MultiPolygon","coordinates":[[[[-58.450567,-34.53561],[-58.450657,-34.535642],[-58.450751,-34.535667],[-58.450846,-34.535685],[-58.450943,-34.535697],[-58.451041,-34.535702],[-58.451139,-34.535701],[-58.451236,-34.535692],[-58.451333,-34.535678],[-58.451427,-34.535656],[-58.451519,-34.535628],[-58.45279,-34.535705],[-58.452862,-34.535712],[-58.452932,-34.535725],[-58.453001,-34.535744],[-58.453067,-34.535769],[-58.45313,-34.535798],[-58.453189,-34.535833],[-58.453243,-34.535873],[-58.453292,-34.535917],[-58.454069,-34.536533],[-58.45429,-34.53675],[-58.454791,-34.537292],[-58.454814,-34.537323],[-58.454831,-34.537357],[-58.454842,-34.537392],[-58.454847,-34.537429],[-58.454845,-34.537465],[-58.454837,-34.537502],[-58.454647,-34.538055],[-58.454627,-34.538113],[-58.454231,-34.53867],[-58.454084,-34.538784],[-58.452787,-34.539424],[-58.452412,-34.539561],[-58.452383,-34.539575],[-58.452351,-34.539586],[-58.452317,-34.539592],[-58.452283,-34.539594],[-58.452249,-34.539591],[-58.452216,-34.539583],[-58.452184,-34.539571],[-58.452174,-34.539566],[-58.452129,-34.539503],[-58.451955,-34.539262],[-58.451927,-34.539223],[-58.451908,-34.539197],[-58.451909,-34.539188],[-58.451895,-34.539148],[-58.451888,-34.539106],[-58.451888,-34.539064],[-58.451887,-34.539024],[-58.451879,-34.538985],[-58.451864,-34.538947],[-58.451819,-34.538896],[-58.451781,-34.538853],[-58.451625,-34.538675],[-58.451413,-34.538463],[-58.451384,-34.53845],[-58.451357,-34.538434],[-58.451333,-34.538416],[-58.451312,-34.538395],[-58.451293,-34.538369],[-58.451278,-34.538342],[-58.451269,-34.538313],[-58.451265,-34.538284],[-58.451278,-34.538235],[-58.451192,-34.538142],[-58.451101,-34.538115],[-58.451101,-34.538114],[-58.451074,-34.538109],[-58.45101,-34.538094],[-58.450984,-34.538087],[-58.450935,-34.538075],[-58.450935,-34.538075],[-58.450848,-34.538053],[-58.450662,-34.537937],[-58.450662,-34.537937],[-58.450451,-34.537817],[-58.450222,-34.537677],[-58.450191,-34.537648],[-58.44995,-34.537427],[-58.449878,-34.537356],[-58.449878,-34.537356],[-58.449882,-34.537222],[-58.449878,-34.537024],[-58.449878,-34.536879],[-58.449907,-34.536725],[-58.449936,-34.536577],[-58.449941,-34.536487],[-58.450017,-34.536133],[-58.44966,-34.535904],[-58.449495,-34.535798],[-58.449151,-34.535607],[-58.449112,-34.535585],[-58.449089,-34.535573],[-58.449061,-34.535556],[-58.449044,-34.53555],[-58.449025,-34.535546],[-58.449003,-34.535544],[-58.44898,-34.535545],[-58.448958,-34.535549],[-58.448945,-34.53555],[-58.448932,-34.535553],[-58.44892,-34.535558],[-58.448909,-34.535564],[-58.448899,-34.535571],[-58.44889,-34.53558],[-58.448867,-34.535606],[-58.448789,-34.535696],[-58.448807,-34.535706],[-58.448807,-34.535718],[-58.448811,-34.53576],[-58.448824,-34.535802],[-58.448828,-34.535811],[-58.448834,-34.535819],[-58.448842,-34.535826],[-58.44885,-34.535833],[-58.44886,-34.535838],[-58.448871,-34.535842],[-58.449317,-34.536106],[-58.449344,-34.536125],[-58.449366,-34.536148],[-58.449384,-34.536173],[-58.449396,-34.5362],[-58.449405,-34.536236],[-58.449408,-34.536272],[-58.449404,-34.536308],[-58.449394,-34.536344],[-58.449377,-34.536378],[-58.449355,-34.536409],[-58.4492,-34.536602],[-58.448892,-34.536985],[-58.448873,-34.537009],[-58.448812,-34.537075],[-58.448756,-34.537168],[-58.448738,-34.537197],[-58.448728,-34.537217],[-58.448722,-34.537239],[-58.448721,-34.537261],[-58.44872,-34.537284],[-58.448714,-34.537305],[-58.448705,-34.537326],[-58.448692,-34.537345],[-58.448675,-34.537363],[-58.448655,-34.537378],[-58.448611,-34.537389],[-58.448565,-34.537394],[-58.448542,-34.537394],[-58.448519,-34.537393],[-58.448518,-34.537393],[-58.448474,-34.537386],[-58.44843,-34.537373],[-58.44839,-34.537355],[-58.448353,-34.537331],[-58.447989,-34.536999],[-58.447978,-34.536993],[-58.447968,-34.536985],[-58.44796,-34.536976],[-58.447953,-34.536967],[-58.447947,-34.536954],[-58.447944,-34.536941],[-58.447944,-34.536928],[-58.447947,-34.536915],[-58.447952,-34.536902],[-58.447962,-34.536879],[-58.447968,-34.536855],[-58.447969,-34.53683],[-58.447966,-34.536805],[-58.447958,-34.536781],[-58.447946,-34.536759],[-58.44793,-34.536738],[-58.447864,-34.53667],[-58.447833,-34.536642],[-58.447792,-34.536606],[-58.447715,-34.536547],[-58.447632,-34.536492],[-58.447544,-34.536443],[-58.447453,-34.5364],[-58.447358,-34.536362],[-58.447139,-34.536284],[-58.44713,-34.536281],[-58.446778,-34.536155],[-58.446715,-34.53613],[-58.446715,-34.53613],[-58.446715,-34.53613],[-58.446703,-34.536128],[-58.446608,-34.536094],[-58.446537,-34.536057],[-58.446461,-34.536027],[-58.446382,-34.536003],[-58.4463,-34.535986],[-58.446217,-34.535975],[-58.446133,-34.535972],[-58.445941,-34.535974],[-58.445899,-34.535976],[-58.445749,-34.535983],[-58.445558,-34.535997],[-58.445367,-34.536017],[-58.445178,-34.536043],[-58.444688,-34.536117],[-58.444479,-34.536182],[-58.444184,-34.536272],[-58.444012,-34.536291],[-58.444006,-34.536292],[-58.443662,-34.536329],[-58.443643,-34.536308],[-58.443883,-34.536164],[-58.443861,-34.536138],[-58.44362,-34.536283],[-58.443614,-34.536276],[-58.443453,-34.536387],[-58.443297,-34.536476],[-58.443176,-34.536539],[-58.443111,-34.536567],[-58.443048,-34.5366],[-58.442989,-34.536636],[-58.442814,-34.536753],[-58.442725,-34.536855],[-58.442721,-34.53686],[-58.442657,-34.536932],[-58.442286,-34.537295],[-58.442191,-34.537256],[-58.442318,-34.537039],[-58.442287,-34.537027],[-58.442158,-34.537245],[-58.442149,-34.537241],[-58.441762,-34.537899],[-58.441559,-34.537864],[-58.441619,-34.537626],[-58.441581,-34.53762],[-58.441522,-34.537857],[-58.44151,-34.537855],[-58.441369,-34.538421],[-58.441368,-34.538427],[-58.441337,-34.538551],[-58.441324,-34.53857],[-58.441119,-34.538576],[-58.441107,-34.538333],[-58.441075,-34.538334],[-58.441086,-34.538571],[-58.44107,-34.538572],[-58.441085,-34.538899],[-58.441093,-34.539069],[-58.441096,-34.539133],[-58.441096,-34.539136],[-58.441092,-34.539136],[-58.440843,-34.539144],[-58.440834,-34.539144],[-58.440875,-34.540045],[-58.440885,-34.540202],[-58.440782,-34.540298],[-58.440736,-34.540275],[-58.440687,-34.540257],[-58.440635,-34.540244],[-58.440599,-34.540241],[-58.440563,-34.540243],[-58.440528,-34.54025],[-58.440507,-34.540257],[-58.440486,-34.540265],[-58.44048,-34.540268],[-58.440448,-34.540283],[-58.440422,-34.540296],[-58.440331,-34.540224],[-58.440318,-34.540203],[-58.440292,-34.539315],[-58.440307,-34.539293],[-58.440312,-34.539284],[-58.440315,-34.539274],[-58.440316,-34.539265],[-58.440315,-34.539255],[-58.440313,-34.539245],[-58.440308,-34.539236],[-58.440302,-34.539227],[-58.440294,-34.53922],[-58.440285,-34.539213],[-58.440276,-34.539208],[-58.440265,-34.539205],[-58.440254,-34.539203],[-58.440243,-34.539202],[-58.440232,-34.539203],[-58.440221,-34.539205],[-58.44021,-34.539209],[-58.440201,-34.539214],[-58.440193,-34.53922],[-58.440186,-34.539228],[-58.44018,-34.539236],[-58.440176,-34.539245],[-58.440174,-34.539254],[-58.440174,-34.539264],[-58.440175,-34.539274],[-58.440179,-34.539283],[-58.440184,-34.539293],[-58.440191,-34.539301],[-58.440199,-34.539308],[-58.440209,-34.539315],[-58.440211,-34.539651],[-58.440211,-34.539785],[-58.440212,-34.539832],[-58.440146,-34.539851],[-58.439526,-34.540034],[-58.439276,-34.540119],[-58.439234,-34.54013],[-58.439191,-34.540134],[-58.439147,-34.540133],[-58.439104,-34.540127],[-58.439062,-34.540114],[-58.43904,-34.540105],[-58.439019,-34.540094],[-58.43899,-34.540083],[-58.438879,-34.540049],[-58.438814,-34.540033],[-58.438766,-34.540021],[-58.438652,-34.539998],[-58.438536,-34.53998],[-58.438418,-34.539968],[-58.43828,-34.539952],[-58.438196,-34.539943],[-58.437931,-34.539943],[-58.437667,-34.539962],[-58.43765,-34.539963],[-58.43756,-34.539969],[-58.437399,-34.539994],[-58.43748,-34.539917],[-58.437485,-34.539916],[-58.43754,-34.539916],[-58.437569,-34.539915],[-58.437636,-34.539845],[-58.437557,-34.539796],[-58.437433,-34.539917],[-58.437347,-34.540002],[-58.437234,-34.540019],[-58.437002,-34.540067],[-58.436965,-34.540079],[-58.436791,-34.540135],[-58.436654,-34.540177],[-58.43652,-34.540224],[-58.43646,-34.540249],[-58.436451,-34.540252],[-58.436389,-34.540278],[-58.436262,-34.540338],[-58.436262,-34.540338],[-58.436223,-34.540358],[-58.43617,-34.540386],[-58.436021,-34.540498],[-58.435885,-34.540606],[-58.435754,-34.540718],[-58.435628,-34.540833],[-58.435506,-34.540952],[-58.435416,-34.541048],[-58.435332,-34.541147],[-58.435255,-34.54125],[-58.435184,-34.541356],[-58.43512,-34.541465],[-58.435077,-34.54155],[-58.435037,-34.541635],[-58.435013,-34.541691],[-58.43497,-34.541807],[-58.434941,-34.541903],[-58.434502,-34.541906],[-58.434389,-34.541907],[-58.434387,-34.541855],[-58.4342,-34.541859],[-58.434203,-34.54202],[-58.434388,-34.542019],[-58.434393,-34.542007],[-58.434918,-34.541996],[-58.434906,-34.542044],[-58.434886,-34.542126],[-58.434859,-34.542207],[-58.434824,-34.542286],[-58.434783,-34.542363],[-58.434735,-34.542437],[-58.434681,-34.542508],[-58.434621,-34.542576],[-58.43457,-34.542625],[-58.434604,-34.542629],[-58.434555,-34.542639],[-58.434469,-34.542716],[-58.434378,-34.542788],[-58.434282,-34.542855],[-58.434181,-34.542917],[-58.434076,-34.542974],[-58.433534,-34.543193],[-58.433391,-34.543255],[-58.433251,-34.543322],[-58.433115,-34.543394],[-58.432983,-34.543472],[-58.432743,-34.543619],[-58.432701,-34.543645],[-58.432612,-34.5437],[-58.432237,-34.543925],[-58.432139,-34.543986],[-58.432046,-34.544051],[-58.431958,-34.54412],[-58.431874,-34.544193],[-58.431794,-34.54427],[-58.43172,-34.54435],[-58.431651,-34.544433],[-58.431585,-34.544514],[-58.431514,-34.544592],[-58.431438,-34.544667],[-58.431384,-34.544721],[-58.431336,-34.544779],[-58.431293,-34.544839],[-58.431256,-34.544902],[-58.431167,-34.545037],[-58.43105,-34.545241],[-58.43099,-34.54538],[-58.430959,-34.545444],[-58.430948,-34.545467],[-58.430943,-34.545476],[-58.430903,-34.545575],[-58.430828,-34.545778],[-58.430778,-34.545937],[-58.430753,-34.546054],[-58.43073,-34.546146],[-58.430714,-34.546238],[-58.430705,-34.546331],[-58.430682,-34.546625],[-58.430682,-34.546851],[-58.430718,-34.547244],[-58.430719,-34.54726],[-58.430725,-34.547326],[-58.430719,-34.547333],[-58.430595,-34.547343],[-58.430111,-34.547009],[-58.43016,-34.546961],[-58.43012,-34.54692],[-58.430013,-34.547032],[-58.429969,-34.547084],[-58.429932,-34.547138],[-58.429901,-34.547196],[-58.429878,-34.547255],[-58.429862,-34.547317],[-58.429854,-34.547379],[-58.429854,-34.547405],[-58.429854,-34.547415],[-58.429853,-34.547442],[-58.42986,-34.547504],[-58.429872,-34.547562],[-58.42989,-34.547619],[-58.429915,-34.547675],[-58.429946,-34.547728],[-58.42998,-34.547778],[-58.43002,-34.547825],[-58.430065,-34.547869],[-58.430114,-34.54791],[-58.430169,-34.547946],[-58.430227,-34.547978],[-58.430231,-34.54797],[-58.430243,-34.54795],[-58.430255,-34.547932],[-58.430197,-34.547889],[-58.430592,-34.547507],[-58.430624,-34.547506],[-58.430751,-34.547502],[-58.430774,-34.547836],[-58.430756,-34.547832],[-58.430733,-34.547827],[-58.430709,-34.547825],[-58.430685,-34.547826],[-58.430661,-34.54783],[-58.430638,-34.547836],[-58.430547,-34.547872],[-58.430458,-34.547912],[-58.430372,-34.547956],[-58.430288,-34.548004],[-58.430223,-34.548049],[-58.430162,-34.548097],[-58.430105,-34.54815],[-58.430053,-34.548205],[-58.430005,-34.548264],[-58.429922,-34.54838],[-58.429845,-34.548499],[-58.429799,-34.548577],[-58.429727,-34.548658],[-58.429648,-34.548735],[-58.429563,-34.548807],[-58.429471,-34.548874],[-58.429375,-34.548936],[-58.429273,-34.548992],[-58.429167,-34.549042],[-58.429057,-34.549085],[-58.428797,-34.549147],[-58.428774,-34.549142],[-58.428751,-34.549136],[-58.428742,-34.549137],[-58.428712,-34.549138],[-58.428641,-34.549142],[-58.428625,-34.549146],[-58.428623,-34.549147],[-58.428597,-34.549153],[-58.428536,-34.549184],[-58.428509,-34.549216],[-58.428482,-34.549247],[-58.428434,-34.549256],[-58.428386,-34.549259],[-58.428337,-34.549255],[-58.42829,-34.549245],[-58.428198,-34.549236],[-58.428115,-34.549228],[-58.428056,-34.549227],[-58.427998,-34.549232],[-58.42794,-34.549244],[-58.427885,-34.549261],[-58.427833,-34.549284],[-58.427786,-34.549313],[-58.427743,-34.549346],[-58.427705,-34.549384],[-58.427575,-34.549422],[-58.427443,-34.549458],[-58.427295,-34.549493],[-58.427145,-34.549524],[-58.426634,-34.549599],[-58.426175,-34.548986],[-58.427054,-34.548518],[-58.426777,-34.548163],[-58.425584,-34.548851],[-58.425901,-34.549465],[-58.425897,-34.549498],[-58.425887,-34.54953],[-58.425871,-34.54956],[-58.425849,-34.549587],[-58.425822,-34.549611],[-58.425791,-34.549632],[-58.425756,-34.549647],[-58.425483,-34.549591],[-58.425674,-34.550061],[-58.426469,-34.551501],[-58.42647,-34.551502],[-58.426668,-34.551861],[-58.426756,-34.552019],[-58.426758,-34.552024],[-58.426759,-34.552023],[-58.426902,-34.55197],[-58.426993,-34.551931],[-58.427311,-34.551792],[-58.42848,-34.551283],[-58.428481,-34.551283],[-58.428604,-34.55123],[-58.428713,-34.551182],[-58.428783,-34.551152],[-58.429035,-34.551053],[-58.429144,-34.551011],[-58.429398,-34.55095],[-58.429759,-34.550936],[-58.430663,-34.551038],[-58.430984,-34.551119],[-58.431511,-34.551342],[-58.431605,-34.551382],[-58.43168,-34.551414],[-58.431841,-34.551509],[-58.432098,-34.551692],[-58.432332,-34.551858],[-58.433391,-34.552461],[-58.433459,-34.5525],[-58.434378,-34.553024],[-58.434423,-34.55305],[-58.43463,-34.55331],[-58.434654,-34.553594],[-58.434111,-34.553957],[-58.435182,-34.554455],[-58.435335,-34.554527],[-58.435456,-34.554587],[-58.435555,-34.554636],[-58.435573,-34.554645],[-58.435717,-34.554716],[-58.435982,-34.554859],[-58.436243,-34.555029],[-58.436537,-34.555262],[-58.436687,-34.55538],[-58.436717,-34.555409],[-58.43687,-34.555552],[-58.437099,-34.555746],[-58.437136,-34.555774],[-58.437186,-34.555812],[-58.437324,-34.555917],[-58.437331,-34.555922],[-58.437501,-34.556035],[-58.437699,-34.556147],[-58.437986,-34.55626],[-58.438343,-34.556366],[-58.438812,-34.556505],[-58.439149,-34.556641],[-58.439539,-34.556798],[-58.439835,-34.556934],[-58.440097,-34.557071],[-58.440159,-34.557104],[-58.440443,-34.557303],[-58.440693,-34.55751],[-58.440914,-34.557721],[-58.441059,-34.557896],[-58.441164,-34.558071],[-58.441251,-34.558298],[-58.441337,-34.558573],[-58.441376,-34.558744],[-58.441386,-34.558816],[-58.441333,-34.558957],[-58.441299,-34.559035],[-58.44126,-34.559168],[-58.441214,-34.559306],[-58.441208,-34.559324],[-58.441129,-34.559546],[-58.441031,-34.559763],[-58.440958,-34.559914],[-58.440956,-34.559917],[-58.440845,-34.56006],[-58.440654,-34.560276],[-58.440646,-34.560283],[-58.440616,-34.560309],[-58.440489,-34.56042],[-58.440328,-34.560556],[-58.440166,-34.560684],[-58.439907,-34.560879],[-58.439892,-34.560891],[-58.439837,-34.560928],[-58.439694,-34.561024],[-58.439469,-34.561168],[-58.439468,-34.561169],[-58.439467,-34.561169],[-58.439441,-34.561182],[-58.439241,-34.561286],[-58.438924,-34.561435],[-58.438687,-34.561533],[-58.438676,-34.561537],[-58.438523,-34.561593],[-58.438473,-34.561611],[-58.438461,-34.561615],[-58.438337,-34.561655],[-58.438248,-34.561684],[-58.43798,-34.561757],[-58.437657,-34.561827],[-58.437291,-34.561873],[-58.437277,-34.561874],[-58.437203,-34.561882],[-58.437105,-34.561891],[-58.437025,-34.561899],[-58.436891,-34.56191],[-58.436779,-34.561918],[-58.436679,-34.561924],[-58.436643,-34.561925],[-58.436618,-34.561926],[-58.436576,-34.561928],[-58.43655,-34.561929],[-58.436445,-34.56193],[-58.436363,-34.561929],[-58.4363,-34.561928],[-58.436217,-34.561926],[-58.436116,-34.561922],[-58.436025,-34.561918],[-58.435996,-34.561915],[-58.435936,-34.56191],[-58.43589,-34.561906],[-58.435819,-34.5619],[-58.435744,-34.561892],[-58.435669,-34.561884],[-58.43557,-34.561873],[-58.435496,-34.561864],[-58.435386,-34.56185],[-58.435275,-34.561836],[-58.435124,-34.561816],[-58.435028,-34.561802],[-58.434958,-34.561792],[-58.434858,-34.562089],[-58.434945,-34.56216],[-58.435402,-34.562537],[-58.435828,-34.562543],[-58.436427,-34.562578],[-58.436717,-34.562561],[-58.437316,-34.562527],[-58.437707,-34.562509],[-58.438433,-34.562476],[-58.438746,-34.562443],[-58.43957,-34.562356],[-58.439654,-34.562345],[-58.440521,-34.562236],[-58.441162,-34.562134],[-58.44125,-34.562239],[-58.441345,-34.562351],[-58.441497,-34.562523],[-58.441969,-34.563053],[-58.442535,-34.563689],[-58.442622,-34.563626],[-58.443646,-34.564234],[-58.444612,-34.564805],[-58.44552,-34.56534],[-58.446064,-34.565662],[-58.446426,-34.565874],[-58.44732,-34.566399],[-58.447796,-34.566678],[-58.447854,-34.566713],[-58.448386,-34.567223],[-58.449043,-34.567853],[-58.449044,-34.567854],[-58.44993,-34.567381],[-58.450163,-34.567257],[-58.45078,-34.56692],[-58.450949,-34.566828],[-58.451584,-34.566481],[-58.451718,-34.56641],[-58.452287,-34.566108],[-58.45375,-34.566932],[-58.453876,-34.567003],[-58.453934,-34.567037],[-58.454787,-34.567536],[-58.455676,-34.568057],[-58.456312,-34.568429],[-58.456576,-34.568583],[-58.457475,-34.569109],[-58.457628,-34.568998],[-58.45771,-34.569526],[-58.457985,-34.569794],[-58.458794,-34.570581],[-58.459679,-34.571441],[-58.460262,-34.572008],[-58.460883,-34.57261],[-58.461379,-34.573091],[-58.46173,-34.573432],[-58.462523,-34.574202],[-58.462903,-34.574593],[-58.463356,-34.575008],[-58.464992,-34.573995],[-58.466037,-34.573336],[-58.467364,-34.572496],[-58.468081,-34.572909],[-58.468841,-34.572012],[-58.469586,-34.571131],[-58.470416,-34.57015],[-58.471176,-34.569252],[-58.471961,-34.568324],[-58.472783,-34.567353],[-58.473368,-34.566662],[-58.472988,-34.566436],[-58.472957,-34.566417],[-58.472421,-34.566098],[-58.471371,-34.565452],[-58.47065,-34.565005],[-58.470439,-34.564868],[-58.469611,-34.564327],[-58.46861,-34.563675],[-58.467649,-34.563048],[-58.46754,-34.562968],[-58.466576,-34.562254],[-58.46649,-34.56219],[-58.466914,-34.562011],[-58.467684,-34.561687],[-58.467037,-34.561315],[-58.467739,-34.560534],[-58.468465,-34.559724],[-58.46893,-34.559206],[-58.469184,-34.558929],[-58.46822,-34.558428],[-58.467758,-34.558188],[-58.467181,-34.557886],[-58.466218,-34.557382],[-58.465275,-34.556889],[-58.464342,-34.556401],[-58.463732,-34.556082],[-58.463413,-34.555915],[-58.462838,-34.555614],[-58.462533,-34.55548],[-58.461354,-34.554862],[-58.46041,-34.554367],[-58.459472,-34.553876],[-58.458755,-34.5535],[-58.458534,-34.553385],[-58.458188,-34.553206],[-58.457593,-34.552898],[-58.457405,-34.552801],[-58.457278,-34.552734],[-58.45649,-34.552326],[-58.455742,-34.551938],[-58.455638,-34.551883],[-58.455458,-34.551788],[-58.454278,-34.551165],[-58.453006,-34.550504],[-58.453393,-34.550053],[-58.453396,-34.55005],[-58.454023,-34.549519],[-58.454157,-34.549405],[-58.454161,-34.549197],[-58.454121,-34.548985],[-58.453961,-34.548764],[-58.453819,-34.548567],[-58.453663,-34.548314],[-58.452847,-34.547256],[-58.452552,-34.546874],[-58.452175,-34.546385],[-58.452124,-34.546284],[-58.450749,-34.544529],[-58.450423,-34.544135],[-58.449965,-34.543542],[-58.449406,-34.542758],[-58.449275,-34.542652],[-58.450049,-34.542227],[-58.451706,-34.541319],[-58.452344,-34.541054],[-58.452581,-34.540972],[-58.452639,-34.540955],[-58.452853,-34.54089],[-58.45306,-34.540836],[-58.453215,-34.540793],[-58.454747,-34.540326],[-58.457494,-34.539004],[-58.458284,-34.538598],[-58.459443,-34.537799],[-58.459205,-34.537607],[-58.458872,-34.537337],[-58.458716,-34.53721],[-58.458558,-34.537319],[-58.458476,-34.53727],[-58.457236,-34.536744],[-58.457234,-34.536744],[-58.456432,-34.536403],[-58.456263,-34.536332],[-58.456263,-34.536332],[-58.456228,-34.536311],[-58.455745,-34.536029],[-58.455174,-34.535756],[-58.454974,-34.535661],[-58.454559,-34.535428],[-58.454135,-34.53519],[-58.454061,-34.535161],[-58.45399,-34.535126],[-58.453924,-34.535085],[-58.453863,-34.535038],[-58.453808,-34.534987],[-58.45376,-34.534932],[-58.453718,-34.534873],[-58.453684,-34.53481],[-58.453658,-34.534746],[-58.453663,-34.534668],[-58.453661,-34.534591],[-58.453651,-34.534514],[-58.453632,-34.534438],[-58.453606,-34.534364],[-58.453572,-34.534292],[-58.45353,-34.534222],[-58.453482,-34.534156],[-58.453426,-34.534094],[-58.45339,-34.534052],[-58.453217,-34.533887],[-58.453208,-34.53388],[-58.453032,-34.533703],[-58.452862,-34.533523],[-58.452698,-34.533338],[-58.452541,-34.53315],[-58.45239,-34.532958],[-58.452246,-34.532762],[-58.451875,-34.532223],[-58.45185,-34.532191],[-58.451831,-34.532156],[-58.451819,-34.532119],[-58.451814,-34.532082],[-58.451816,-34.532043],[-58.451826,-34.532006],[-58.451842,-34.531971],[-58.451865,-34.531938],[-58.451876,-34.53191],[-58.451882,-34.531882],[-58.451884,-34.531853],[-58.451882,-34.531825],[-58.451878,-34.531817],[-58.451872,-34.5318],[-58.451863,-34.531784],[-58.451846,-34.53176],[-58.451824,-34.531738],[-58.451798,-34.53172],[-58.451769,-34.531705],[-58.451738,-34.531694],[-58.451705,-34.531687],[-58.451671,-34.531685],[-58.451637,-34.531687],[-58.451603,-34.531693],[-58.451572,-34.531703],[-58.451525,-34.531735],[-58.451483,-34.53177],[-58.451444,-34.531808],[-58.45141,-34.531849],[-58.45138,-34.531892],[-58.451296,-34.531972],[-58.451217,-34.532056],[-58.451146,-34.532144],[-58.451081,-34.532236],[-58.451024,-34.532331],[-58.450966,-34.532436],[-58.450915,-34.532544],[-58.450871,-34.532653],[-58.450834,-34.532765],[-58.450805,-34.532877],[-58.450782,-34.532991],[-58.450768,-34.533075],[-58.450748,-34.533159],[-58.450722,-34.533241],[-58.45069,-34.533321],[-58.450651,-34.5334],[-58.450607,-34.533476],[-58.450468,-34.533711],[-58.450414,-34.533814],[-58.450364,-34.533918],[-58.450319,-34.534025],[-58.450279,-34.534132],[-58.450046,-34.53489],[-58.450034,-34.534953],[-58.45003,-34.535017],[-58.450035,-34.53508],[-58.450048,-34.535142],[-58.450069,-34.535203],[-58.450098,-34.535261],[-58.450134,-34.535317],[-58.450178,-34.535369],[-58.450245,-34.535427],[-58.450318,-34.535481],[-58.450397,-34.53553],[-58.45048,-34.535573],[-58.450567,-34.53561]]]]}},{"type":"Feature","properties":{"name":"Núñez","source":"Buenos Aires Data - Barrios CABA"},"geometry":{"type":"MultiPolygon","coordinates":[[[[-58.458716,-34.53721],[-58.458872,-34.537337],[-58.459205,-34.537607],[-58.459443,-34.537799],[-58.458284,-34.538598],[-58.457494,-34.539004],[-58.454747,-34.540326],[-58.453215,-34.540793],[-58.45306,-34.540836],[-58.452853,-34.54089],[-58.452639,-34.540955],[-58.452581,-34.540972],[-58.452344,-34.541054],[-58.451706,-34.541319],[-58.450049,-34.542227],[-58.449275,-34.542652],[-58.449406,-34.542758],[-58.449965,-34.543542],[-58.450423,-34.544135],[-58.450749,-34.544529],[-58.452124,-34.546284],[-58.452175,-34.546385],[-58.452552,-34.546874],[-58.452847,-34.547256],[-58.453663,-34.548314],[-58.453819,-34.548567],[-58.453961,-34.548764],[-58.454121,-34.548985],[-58.454161,-34.549197],[-58.454157,-34.549405],[-58.454023,-34.549519],[-58.453396,-34.55005],[-58.453393,-34.550053],[-58.453006,-34.550504],[-58.454278,-34.551165],[-58.455458,-34.551788],[-58.455638,-34.551883],[-58.455742,-34.551938],[-58.45649,-34.552326],[-58.457278,-34.552734],[-58.457405,-34.552801],[-58.457593,-34.552898],[-58.458188,-34.553206],[-58.458534,-34.553385],[-58.458755,-34.5535],[-58.459472,-34.553876],[-58.46041,-34.554367],[-58.461354,-34.554862],[-58.462533,-34.55548],[-58.462838,-34.555614],[-58.463413,-34.555915],[-58.463732,-34.556082],[-58.464342,-34.556401],[-58.465275,-34.556889],[-58.466218,-34.557382],[-58.467181,-34.557886],[-58.467758,-34.558188],[-58.46822,-34.558428],[-58.469184,-34.558929],[-58.46965,-34.558421],[-58.470068,-34.557944],[-58.470872,-34.55703],[-58.471556,-34.556163],[-58.47185,-34.55579],[-58.472449,-34.555017],[-58.472743,-34.554638],[-58.472984,-34.554323],[-58.472984,-34.554323],[-58.473586,-34.553534],[-58.474436,-34.552421],[-58.473573,-34.551944],[-58.472704,-34.551463],[-58.471864,-34.550998],[-58.471008,-34.550525],[-58.470157,-34.550054],[-58.469303,-34.549581],[-58.468373,-34.549076],[-58.468189,-34.54894],[-58.468226,-34.548894],[-58.468509,-34.54854],[-58.468553,-34.548484],[-58.468668,-34.548347],[-58.468848,-34.548114],[-58.468975,-34.547954],[-58.469129,-34.547761],[-58.469401,-34.547411],[-58.469939,-34.546715],[-58.470431,-34.546066],[-58.471013,-34.545279],[-58.471537,-34.544569],[-58.472094,-34.543817],[-58.472692,-34.543009],[-58.473236,-34.542273],[-58.473786,-34.54153],[-58.474356,-34.54076],[-58.474927,-34.539988],[-58.475419,-34.539337],[-58.475452,-34.539294],[-58.475487,-34.539248],[-58.475545,-34.539171],[-58.47568,-34.538992],[-58.475761,-34.538885],[-58.475845,-34.538773],[-58.475907,-34.538692],[-58.475953,-34.538631],[-58.47588,-34.538599],[-58.475246,-34.538318],[-58.474636,-34.538049],[-58.474412,-34.53795],[-58.474322,-34.53791],[-58.47408,-34.537803],[-58.473317,-34.537466],[-58.471095,-34.536485],[-58.468011,-34.535123],[-58.467836,-34.535046],[-58.467595,-34.534939],[-58.467486,-34.534891],[-58.467381,-34.534845],[-58.467229,-34.534777],[-58.467224,-34.534775],[-58.467182,-34.534757],[-58.466521,-34.534465],[-58.466313,-34.534373],[-58.465894,-34.534188],[-58.465894,-34.534188],[-58.464986,-34.533787],[-58.464163,-34.533423],[-58.464136,-34.533411],[-58.464131,-34.533409],[-58.463796,-34.533261],[-58.463156,-34.532526],[-58.463123,-34.532488],[-58.461605,-34.530745],[-58.461283,-34.530375],[-58.461275,-34.530366],[-58.461199,-34.530278],[-58.461133,-34.530202],[-58.461071,-34.530131],[-58.461002,-34.530036],[-58.460939,-34.529938],[-58.460882,-34.529838],[-58.46083,-34.529735],[-58.460784,-34.529631],[-58.460723,-34.529489],[-58.460654,-34.529349],[-58.460578,-34.529213],[-58.460495,-34.529078],[-58.460406,-34.528947],[-58.460309,-34.52882],[-58.460055,-34.528503],[-58.459797,-34.528188],[-58.459736,-34.528116],[-58.459671,-34.528045],[-58.459663,-34.528038],[-58.459598,-34.527964],[-58.459539,-34.527886],[-58.459504,-34.52783],[-58.459484,-34.527769],[-58.459471,-34.527706],[-58.459465,-34.527642],[-58.459467,-34.527578],[-58.459476,-34.527514],[-58.459479,-34.527492],[-58.459478,-34.52747],[-58.459473,-34.527449],[-58.459464,-34.527428],[-58.459452,-34.527408],[-58.459297,-34.527199],[-58.459279,-34.527178],[-58.459252,-34.527145],[-58.459202,-34.527093],[-58.459148,-34.527045],[-58.459089,-34.527],[-58.459027,-34.526959],[-58.458904,-34.526881],[-58.458785,-34.5268],[-58.458706,-34.526749],[-58.458622,-34.526703],[-58.458535,-34.526662],[-58.458444,-34.526627],[-58.458321,-34.526588],[-58.458194,-34.526555],[-58.458066,-34.526528],[-58.457936,-34.526508],[-58.457804,-34.526494],[-58.45771,-34.526489],[-58.457616,-34.526491],[-58.457523,-34.526499],[-58.45743,-34.526512],[-58.457339,-34.526532],[-58.45725,-34.526557],[-58.457163,-34.526588],[-58.45704,-34.526621],[-58.45692,-34.526659],[-58.456803,-34.526704],[-58.456717,-34.526741],[-58.456634,-34.526783],[-58.456555,-34.52683],[-58.456123,-34.527098],[-58.455991,-34.527178],[-58.455637,-34.527394],[-58.455607,-34.527408],[-58.45558,-34.527425],[-58.455557,-34.527444],[-58.455536,-34.527467],[-58.455442,-34.527586],[-58.455045,-34.528078],[-58.454635,-34.528584],[-58.454404,-34.528862],[-58.45349,-34.529988],[-58.45344,-34.530042],[-58.453396,-34.530101],[-58.453359,-34.530163],[-58.45333,-34.530228],[-58.453309,-34.530294],[-58.453296,-34.530362],[-58.453291,-34.530431],[-58.453335,-34.531347],[-58.453337,-34.531445],[-58.453347,-34.531542],[-58.453366,-34.531638],[-58.453393,-34.531733],[-58.453428,-34.531826],[-58.453471,-34.531917],[-58.453522,-34.532004],[-58.45358,-34.532089],[-58.453646,-34.53217],[-58.453703,-34.532215],[-58.453764,-34.532255],[-58.45383,-34.532291],[-58.453899,-34.532322],[-58.453971,-34.532347],[-58.454045,-34.532368],[-58.454121,-34.532383],[-58.454199,-34.532392],[-58.454951,-34.532864],[-58.455081,-34.532945],[-58.45534,-34.533108],[-58.455387,-34.533155],[-58.455427,-34.533206],[-58.45546,-34.533261],[-58.455486,-34.533318],[-58.455504,-34.533377],[-58.455514,-34.533438],[-58.455516,-34.533499],[-58.455511,-34.53356],[-58.455497,-34.53362],[-58.455475,-34.533679],[-58.455446,-34.533735],[-58.455409,-34.533788],[-58.455366,-34.533837],[-58.455309,-34.533887],[-58.455258,-34.533942],[-58.455214,-34.534001],[-58.455178,-34.534063],[-58.45515,-34.534128],[-58.45513,-34.534195],[-58.455119,-34.534263],[-58.455116,-34.534332],[-58.455121,-34.534401],[-58.455121,-34.534669],[-58.45512,-34.534871],[-58.455125,-34.534947],[-58.455139,-34.535022],[-58.455161,-34.535096],[-58.455192,-34.535168],[-58.45523,-34.535237],[-58.455275,-34.535303],[-58.455328,-34.535366],[-58.455388,-34.535424],[-58.455453,-34.535477],[-58.455525,-34.535525],[-58.455563,-34.535539],[-58.45562,-34.535569],[-58.456777,-34.536164],[-58.45689,-34.536221],[-58.457633,-34.536563],[-58.458741,-34.537073],[-58.458759,-34.537082],[-58.458781,-34.537092],[-58.458785,-34.537093],[-58.45879,-34.537096],[-58.45879,-34.537096],[-58.458845,-34.537121],[-58.458716,-34.53721]]]]}},{"type":"Feature","properties":{"name":"Colegiales","source":"Buenos Aires Data - Barrios CABA"},"geometry":{"type":"MultiPolygon","coordinates":[[[[-58.446691,-34.569066],[-58.446497,-34.569161],[-58.445705,-34.56955],[-58.444886,-34.569952],[-58.444111,-34.570333],[-58.443828,-34.570472],[-58.44364,-34.570564],[-58.442956,-34.570915],[-58.442544,-34.571127],[-58.442203,-34.571302],[-58.441944,-34.571445],[-58.440745,-34.572106],[-58.441703,-34.573074],[-58.44242,-34.573798],[-58.443139,-34.574524],[-58.443544,-34.574932],[-58.443972,-34.575364],[-58.443754,-34.575504],[-58.442919,-34.57604],[-58.442728,-34.576163],[-58.442565,-34.57628],[-58.441878,-34.576772],[-58.441814,-34.576818],[-58.440889,-34.577796],[-58.44022,-34.578324],[-58.439939,-34.578547],[-58.440533,-34.5791],[-58.441543,-34.58004],[-58.441578,-34.580072],[-58.442283,-34.580728],[-58.442509,-34.580939],[-58.443423,-34.581789],[-58.443432,-34.581797],[-58.443761,-34.582228],[-58.44378,-34.582252],[-58.444449,-34.583171],[-58.444449,-34.583171],[-58.444472,-34.583161],[-58.444643,-34.583087],[-58.445786,-34.582596],[-58.446182,-34.582426],[-58.447092,-34.582034],[-58.448052,-34.581622],[-58.448275,-34.581526],[-58.44828,-34.581524],[-58.44829,-34.581521],[-58.448326,-34.581507],[-58.448393,-34.581482],[-58.44846,-34.581458],[-58.449192,-34.581188],[-58.449442,-34.581096],[-58.449595,-34.58104],[-58.449674,-34.581009],[-58.449999,-34.58088],[-58.450517,-34.580674],[-58.450952,-34.580502],[-58.45101,-34.580479],[-58.451018,-34.580476],[-58.451252,-34.580401],[-58.452022,-34.580154],[-58.452139,-34.580116],[-58.452193,-34.580099],[-58.453021,-34.579833],[-58.453533,-34.579669],[-58.454862,-34.579243],[-58.455399,-34.57907],[-58.455971,-34.578916],[-58.457148,-34.578599],[-58.457162,-34.578595],[-58.457341,-34.578547],[-58.457744,-34.578438],[-58.457764,-34.578437],[-58.458538,-34.57839],[-58.459695,-34.57832],[-58.459785,-34.578315],[-58.460102,-34.578296],[-58.460199,-34.578295],[-58.460225,-34.578295],[-58.460547,-34.577943],[-58.460633,-34.577853],[-58.461605,-34.576837],[-58.462247,-34.576167],[-58.462376,-34.576032],[-58.463187,-34.575105],[-58.463356,-34.575008],[-58.462903,-34.574593],[-58.462523,-34.574202],[-58.46173,-34.573432],[-58.461379,-34.573091],[-58.460883,-34.57261],[-58.460262,-34.572008],[-58.459679,-34.571441],[-58.458794,-34.570581],[-58.457985,-34.569794],[-58.45771,-34.569526],[-58.457628,-34.568998],[-58.457475,-34.569109],[-58.456576,-34.568583],[-58.456312,-34.568429],[-58.455676,-34.568057],[-58.454787,-34.567536],[-58.453934,-34.567037],[-58.453876,-34.567003],[-58.45375,-34.566932],[-58.452287,-34.566108],[-58.451718,-34.56641],[-58.451584,-34.566481],[-58.450949,-34.566828],[-58.45078,-34.56692],[-58.450163,-34.567257],[-58.44993,-34.567381],[-58.449044,-34.567854],[-58.448643,-34.568068],[-58.448133,-34.568329],[-58.447042,-34.568886],[-58.446691,-34.569066]]]]}},{"type":"Feature","properties":{"name":"Parque Chas","source":"Buenos Aires Data - Barrios CABA"},"geometry":{"type":"MultiPolygon","coordinates":[[[[-58.470815,-34.587445],[-58.470819,-34.587448],[-58.470877,-34.587497],[-58.471116,-34.5877],[-58.471235,-34.587802],[-58.471893,-34.588317],[-58.472117,-34.588492],[-58.472896,-34.589101],[-58.473086,-34.589249],[-58.473219,-34.589354],[-58.47406,-34.590009],[-58.475033,-34.590768],[-58.475396,-34.591052],[-58.475724,-34.591308],[-58.475758,-34.591393],[-58.475874,-34.591686],[-58.475889,-34.591724],[-58.476483,-34.591557],[-58.477203,-34.591348],[-58.477825,-34.591189],[-58.478083,-34.591124],[-58.479545,-34.590751],[-58.480871,-34.590413],[-58.481182,-34.590329],[-58.481288,-34.5903],[-58.481458,-34.590246],[-58.481862,-34.590117],[-58.482012,-34.590064],[-58.482501,-34.589893],[-58.48365,-34.589491],[-58.483988,-34.589372],[-58.484706,-34.58912],[-58.48471,-34.589119],[-58.485078,-34.588729],[-58.485434,-34.588351],[-58.48549,-34.588291],[-58.485561,-34.588216],[-58.486111,-34.587633],[-58.48644,-34.587285],[-58.486544,-34.587176],[-58.486696,-34.587014],[-58.486803,-34.586897],[-58.486894,-34.586797],[-58.487444,-34.586223],[-58.488086,-34.585551],[-58.488194,-34.585438],[-58.488794,-34.584818],[-58.488104,-34.584419],[-58.487033,-34.583799],[-58.48596,-34.583177],[-58.485824,-34.583099],[-58.485095,-34.582675],[-58.484747,-34.582472],[-58.484121,-34.582109],[-58.483134,-34.581535],[-58.483014,-34.581465],[-58.482146,-34.58096],[-58.481129,-34.580368],[-58.480994,-34.580289],[-58.480484,-34.579994],[-58.48031,-34.579893],[-58.480183,-34.57982],[-58.479233,-34.579269],[-58.478988,-34.579125],[-58.477223,-34.579533],[-58.476669,-34.579664],[-58.475499,-34.57994],[-58.475424,-34.579958],[-58.474996,-34.580471],[-58.474921,-34.580566],[-58.474682,-34.580842],[-58.474462,-34.581098],[-58.47431,-34.58127],[-58.473995,-34.581627],[-58.473858,-34.581672],[-58.473571,-34.581765],[-58.47363,-34.581855],[-58.473656,-34.58192],[-58.47363,-34.581997],[-58.473648,-34.582062],[-58.473538,-34.582279],[-58.472981,-34.583337],[-58.47246,-34.584329],[-58.47213,-34.584957],[-58.471114,-34.586888],[-58.470837,-34.587416],[-58.470835,-34.587419],[-58.470815,-34.587445]]]]}},{"type":"Feature","properties":{"name":"Villa Pueyrredón","source":"Buenos Aires Data - Barrios CABA"},"geometry":{"type":"MultiPolygon","coordinates":[[[[-58.503311,-34.593856],[-58.503472,-34.593954],[-58.504117,-34.593242],[-58.504769,-34.592522],[-58.505285,-34.591952],[-58.505422,-34.5918],[-58.506072,-34.591082],[-58.506724,-34.590361],[-58.507504,-34.589498],[-58.508244,-34.58868],[-58.509022,-34.58782],[-58.509788,-34.586972],[-58.510493,-34.586193],[-58.511041,-34.585587],[-58.511154,-34.585461],[-58.51181,-34.584738],[-58.512357,-34.584134],[-58.512468,-34.584011],[-58.513273,-34.583117],[-58.513401,-34.582975],[-58.513814,-34.582516],[-58.513921,-34.582398],[-58.514517,-34.581744],[-58.514573,-34.581693],[-58.514584,-34.581682],[-58.514584,-34.581681],[-58.514655,-34.58161],[-58.514741,-34.581524],[-58.514855,-34.58141],[-58.514856,-34.581409],[-58.514903,-34.581362],[-58.514971,-34.581316],[-58.515,-34.581314],[-58.515162,-34.5813],[-58.515299,-34.581288],[-58.51546,-34.581275],[-58.515536,-34.581268],[-58.515397,-34.580975],[-58.513824,-34.577676],[-58.512711,-34.575341],[-58.511053,-34.57186],[-58.510335,-34.570353],[-58.510318,-34.570319],[-58.510318,-34.570319],[-58.510295,-34.570269],[-58.509921,-34.569375],[-58.509879,-34.569274],[-58.509875,-34.569265],[-58.509875,-34.569266],[-58.509851,-34.569301],[-58.509845,-34.56931],[-58.509805,-34.569369],[-58.509686,-34.569498],[-58.509677,-34.569508],[-58.509574,-34.569615],[-58.509522,-34.569669],[-58.509484,-34.569701],[-58.509395,-34.569778],[-58.509312,-34.569848],[-58.509255,-34.569897],[-58.509234,-34.569907],[-58.509041,-34.569997],[-58.50798,-34.570651],[-58.50788,-34.570708],[-58.507636,-34.570846],[-58.507122,-34.571137],[-58.506874,-34.571289],[-58.50679,-34.571341],[-58.506675,-34.571405],[-58.506486,-34.571512],[-58.50586,-34.571855],[-58.505546,-34.572027],[-58.50534,-34.572145],[-58.505127,-34.572267],[-58.504196,-34.572805],[-58.503948,-34.572948],[-58.502995,-34.573518],[-58.502947,-34.573549],[-58.502283,-34.574061],[-58.501736,-34.574484],[-58.501476,-34.574684],[-58.501329,-34.574798],[-58.500692,-34.575292],[-58.500151,-34.575713],[-58.499827,-34.575965],[-58.499657,-34.576097],[-58.498846,-34.576729],[-58.498035,-34.57736],[-58.49786,-34.577496],[-58.497218,-34.577998],[-58.497024,-34.57815],[-58.496362,-34.578671],[-58.495907,-34.579028],[-58.495816,-34.579098],[-58.495564,-34.579291],[-58.495546,-34.579304],[-58.495417,-34.579405],[-58.495286,-34.579504],[-58.49446,-34.580133],[-58.494329,-34.580233],[-58.493619,-34.580774],[-58.493453,-34.580885],[-58.493246,-34.581023],[-58.492543,-34.581593],[-58.492405,-34.581705],[-58.49194,-34.582107],[-58.491752,-34.582269],[-58.491042,-34.582881],[-58.49052,-34.583332],[-58.490438,-34.583403],[-58.490264,-34.583552],[-58.489832,-34.583924],[-58.489506,-34.584205],[-58.488794,-34.584818],[-58.488969,-34.58493],[-58.48956,-34.585303],[-58.490286,-34.58576],[-58.49085,-34.586116],[-58.491413,-34.586471],[-58.49197,-34.586823],[-58.49254,-34.587182],[-58.493663,-34.58789],[-58.49389,-34.588033],[-58.494225,-34.588241],[-58.494794,-34.588594],[-58.495361,-34.588946],[-58.495592,-34.589089],[-58.495928,-34.589297],[-58.497066,-34.589999],[-58.498202,-34.590701],[-58.499487,-34.591494],[-58.500817,-34.592315],[-58.501928,-34.593001],[-58.502142,-34.593133],[-58.503311,-34.593856]]]]}},{"type":"Feature","properties":{"name":"Agronomía","source":"Buenos Aires Data - Barrios CABA"},"geometry":{"type":"MultiPolygon","coordinates":[[[[-58.477116,-34.595115],[-58.47788,-34.597088],[-58.478348,-34.598343],[-58.47858,-34.598966],[-58.478831,-34.599671],[-58.479747,-34.599276],[-58.48078,-34.598831],[-58.482127,-34.598251],[-58.482844,-34.597944],[-58.482984,-34.597886],[-58.482999,-34.597881],[-58.483288,-34.597795],[-58.483456,-34.597758],[-58.483462,-34.597758],[-58.484853,-34.597635],[-58.485181,-34.597607],[-58.48613,-34.597537],[-58.486487,-34.597511],[-58.486681,-34.597497],[-58.487143,-34.597463],[-58.487354,-34.597447],[-58.487798,-34.597416],[-58.487825,-34.597414],[-58.488544,-34.597364],[-58.489527,-34.597297],[-58.490186,-34.59725],[-58.491217,-34.597181],[-58.49249,-34.597096],[-58.49282,-34.597073],[-58.492909,-34.597067],[-58.493418,-34.597033],[-58.494716,-34.596948],[-58.496785,-34.596811],[-58.497128,-34.596789],[-58.497175,-34.596817],[-58.498385,-34.596368],[-58.499551,-34.595934],[-58.499634,-34.595903],[-58.499787,-34.595847],[-58.500126,-34.59572],[-58.50071,-34.595503],[-58.501793,-34.595101],[-58.502757,-34.594742],[-58.502877,-34.594698],[-58.50318,-34.594582],[-58.503544,-34.59445],[-58.503084,-34.594382],[-58.503472,-34.593954],[-58.503311,-34.593856],[-58.502142,-34.593133],[-58.501928,-34.593001],[-58.500817,-34.592315],[-58.499487,-34.591494],[-58.498202,-34.590701],[-58.497066,-34.589999],[-58.495928,-34.589297],[-58.495592,-34.589089],[-58.495361,-34.588946],[-58.494794,-34.588594],[-58.494225,-34.588241],[-58.49389,-34.588033],[-58.493663,-34.58789],[-58.49254,-34.587182],[-58.49197,-34.586823],[-58.491413,-34.586471],[-58.49085,-34.586116],[-58.490286,-34.58576],[-58.48956,-34.585303],[-58.488969,-34.58493],[-58.488794,-34.584818],[-58.488194,-34.585438],[-58.488086,-34.585551],[-58.487444,-34.586223],[-58.486894,-34.586797],[-58.486803,-34.586897],[-58.486696,-34.587014],[-58.486544,-34.587176],[-58.48644,-34.587285],[-58.486111,-34.587633],[-58.485561,-34.588216],[-58.48549,-34.588291],[-58.485434,-34.588351],[-58.485078,-34.588729],[-58.48471,-34.589119],[-58.484706,-34.58912],[-58.483988,-34.589372],[-58.48365,-34.589491],[-58.482501,-34.589893],[-58.482012,-34.590064],[-58.481862,-34.590117],[-58.481458,-34.590246],[-58.481288,-34.5903],[-58.481182,-34.590329],[-58.480871,-34.590413],[-58.479545,-34.590751],[-58.478083,-34.591124],[-58.477825,-34.591189],[-58.477203,-34.591348],[-58.476483,-34.591557],[-58.475889,-34.591724],[-58.475978,-34.591947],[-58.476036,-34.592094],[-58.476127,-34.592357],[-58.476206,-34.592585],[-58.476686,-34.593927],[-58.476709,-34.59399],[-58.476711,-34.593997],[-58.476903,-34.594527],[-58.477116,-34.595115]]]]}},{"type":"Feature","properties":{"name":"Saavedra","source":"Buenos Aires Data - Barrios CABA"},"geometry":{"type":"MultiPolygon","coordinates":[[[[-58.488131,-34.561287],[-58.488274,-34.561356],[-58.488292,-34.561365],[-58.48831,-34.561373],[-58.489086,-34.561738],[-58.489277,-34.561827],[-58.490043,-34.562196],[-58.490401,-34.562367],[-58.490518,-34.562424],[-58.490991,-34.562651],[-58.491834,-34.561442],[-58.49193,-34.561302],[-58.492884,-34.561757],[-58.49413,-34.562353],[-58.494289,-34.562429],[-58.495417,-34.562971],[-58.496593,-34.563536],[-58.496823,-34.563646],[-58.497861,-34.564146],[-58.497991,-34.564209],[-58.499053,-34.564721],[-58.49914,-34.564763],[-58.499713,-34.565041],[-58.500235,-34.565291],[-58.500863,-34.565594],[-58.501438,-34.565872],[-58.501877,-34.566084],[-58.501998,-34.566142],[-58.502561,-34.566416],[-58.502712,-34.56649],[-58.503332,-34.566793],[-58.503957,-34.5671],[-58.504095,-34.567171],[-58.504101,-34.567175],[-58.504241,-34.567248],[-58.504657,-34.567452],[-58.505072,-34.567656],[-58.505209,-34.567723],[-58.506263,-34.568241],[-58.507317,-34.568759],[-58.508418,-34.5693],[-58.508605,-34.569392],[-58.508818,-34.569509],[-58.509041,-34.569997],[-58.509234,-34.569907],[-58.509255,-34.569897],[-58.509312,-34.569848],[-58.509395,-34.569778],[-58.509484,-34.569701],[-58.509522,-34.569669],[-58.509574,-34.569615],[-58.509677,-34.569508],[-58.509686,-34.569498],[-58.509805,-34.569369],[-58.509845,-34.56931],[-58.509851,-34.569301],[-58.509875,-34.569266],[-58.509875,-34.569265],[-58.509812,-34.569131],[-58.509397,-34.568251],[-58.506366,-34.561822],[-58.505787,-34.560595],[-58.504905,-34.558725],[-58.502001,-34.552565],[-58.501393,-34.551276],[-58.500736,-34.549881],[-58.500672,-34.549745],[-58.500551,-34.549489],[-58.497463,-34.548127],[-58.49542,-34.547225],[-58.494852,-34.546974],[-58.494696,-34.546905],[-58.49411,-34.546647],[-58.49348,-34.546369],[-58.49305,-34.546179],[-58.492871,-34.5461],[-58.492503,-34.545937],[-58.490466,-34.545038],[-58.487701,-34.543817],[-58.487154,-34.543576],[-58.4866,-34.543332],[-58.486582,-34.543324],[-58.486057,-34.543092],[-58.483649,-34.542029],[-58.481244,-34.540967],[-58.480862,-34.540798],[-58.480744,-34.540746],[-58.479508,-34.540201],[-58.479265,-34.540093],[-58.478604,-34.539801],[-58.47812,-34.539588],[-58.477849,-34.539468],[-58.477469,-34.5393],[-58.475981,-34.538643],[-58.475953,-34.538631],[-58.475907,-34.538692],[-58.475845,-34.538773],[-58.475761,-34.538885],[-58.47568,-34.538992],[-58.475545,-34.539171],[-58.475487,-34.539248],[-58.475452,-34.539294],[-58.475419,-34.539337],[-58.474927,-34.539988],[-58.474356,-34.54076],[-58.473786,-34.54153],[-58.473236,-34.542273],[-58.472692,-34.543009],[-58.472094,-34.543817],[-58.471537,-34.544569],[-58.471013,-34.545279],[-58.470431,-34.546066],[-58.469939,-34.546715],[-58.469401,-34.547411],[-58.469129,-34.547761],[-58.468975,-34.547954],[-58.468848,-34.548114],[-58.468668,-34.548347],[-58.468553,-34.548484],[-58.468509,-34.54854],[-58.468226,-34.548894],[-58.468189,-34.54894],[-58.468373,-34.549076],[-58.469303,-34.549581],[-58.470157,-34.550054],[-58.471008,-34.550525],[-58.471864,-34.550998],[-58.472704,-34.551463],[-58.473573,-34.551944],[-58.474436,-34.552421],[-58.473586,-34.553534],[-58.473929,-34.553725],[-58.474252,-34.553906],[-58.475176,-34.554423],[-58.47608,-34.55493],[-58.476991,-34.55544],[-58.47791,-34.555955],[-58.478817,-34.556463],[-58.479354,-34.556764],[-58.479721,-34.55697],[-58.480526,-34.557421],[-58.480628,-34.557478],[-58.480806,-34.557577],[-58.481536,-34.557986],[-58.482446,-34.558494],[-58.483408,-34.559031],[-58.48356,-34.559104],[-58.483701,-34.559172],[-58.48435,-34.559484],[-58.484989,-34.55979],[-58.485018,-34.559804],[-58.485166,-34.559875],[-58.485301,-34.559939],[-58.486255,-34.560394],[-58.486389,-34.560458],[-58.487175,-34.560827],[-58.48732,-34.560895],[-58.488131,-34.561287]]]]}},{"type":"Feature","properties":{"name":"Coghlan","source":"Buenos Aires Data - Barrios CABA"},"geometry":{"type":"MultiPolygon","coordinates":[[[[-58.472421,-34.566098],[-58.472957,-34.566417],[-58.472988,-34.566436],[-58.473533,-34.566552],[-58.473607,-34.566566],[-58.474594,-34.566811],[-58.474663,-34.566738],[-58.474666,-34.566735],[-58.475124,-34.566219],[-58.47619,-34.566849],[-58.476356,-34.5667],[-58.477178,-34.565968],[-58.478148,-34.565103],[-58.479118,-34.564238],[-58.479312,-34.564066],[-58.479055,-34.563932],[-58.479541,-34.56377],[-58.479722,-34.563696],[-58.47991,-34.563605],[-58.480068,-34.563507],[-58.480374,-34.563316],[-58.480225,-34.563236],[-58.480977,-34.562643],[-58.481158,-34.5625],[-58.48356,-34.559104],[-58.483408,-34.559031],[-58.482446,-34.558494],[-58.481536,-34.557986],[-58.480806,-34.557577],[-58.480628,-34.557478],[-58.480526,-34.557421],[-58.479721,-34.55697],[-58.479354,-34.556764],[-58.478817,-34.556463],[-58.47791,-34.555955],[-58.476991,-34.55544],[-58.47608,-34.55493],[-58.475176,-34.554423],[-58.474252,-34.553906],[-58.473929,-34.553725],[-58.473586,-34.553534],[-58.472984,-34.554323],[-58.472984,-34.554323],[-58.472743,-34.554638],[-58.472449,-34.555017],[-58.47185,-34.55579],[-58.471556,-34.556163],[-58.470872,-34.55703],[-58.470068,-34.557944],[-58.46965,-34.558421],[-58.469184,-34.558929],[-58.46893,-34.559206],[-58.468465,-34.559724],[-58.467739,-34.560534],[-58.467037,-34.561315],[-58.467684,-34.561687],[-58.466914,-34.562011],[-58.46649,-34.56219],[-58.466576,-34.562254],[-58.46754,-34.562968],[-58.467649,-34.563048],[-58.46861,-34.563675],[-58.469611,-34.564327],[-58.470439,-34.564868],[-58.47065,-34.565005],[-58.471371,-34.565452],[-58.472421,-34.566098]]]]}},{"type":"Feature","properties":{"name":"Villa Ortúzar","source":"Buenos Aires Data - Barrios CABA"},"geometry":{"type":"MultiPolygon","coordinates":[[[[-58.460547,-34.577943],[-58.460225,-34.578295],[-58.460523,-34.578295],[-58.460528,-34.578295],[-58.460529,-34.579667],[-58.460531,-34.580772],[-58.460532,-34.581853],[-58.460533,-34.58295],[-58.460535,-34.584046],[-58.460536,-34.584944],[-58.460471,-34.585036],[-58.460426,-34.585203],[-58.460446,-34.585288],[-58.460414,-34.585402],[-58.460379,-34.585528],[-58.461464,-34.585833],[-58.46187,-34.586042],[-58.461953,-34.586112],[-58.462975,-34.586981],[-58.463074,-34.587065],[-58.464533,-34.588422],[-58.465783,-34.589604],[-58.466828,-34.590593],[-58.466958,-34.590515],[-58.466959,-34.590514],[-58.467118,-34.590388],[-58.467661,-34.589959],[-58.467893,-34.589776],[-58.468077,-34.589631],[-58.468191,-34.589541],[-58.468895,-34.588986],[-58.469212,-34.588737],[-58.470231,-34.587934],[-58.470805,-34.58746],[-58.470815,-34.587445],[-58.470835,-34.587419],[-58.470837,-34.587416],[-58.471114,-34.586888],[-58.47213,-34.584957],[-58.47246,-34.584329],[-58.472981,-34.583337],[-58.473538,-34.582279],[-58.473648,-34.582062],[-58.47363,-34.581997],[-58.473656,-34.58192],[-58.47363,-34.581855],[-58.473571,-34.581765],[-58.473858,-34.581672],[-58.473995,-34.581627],[-58.47431,-34.58127],[-58.474462,-34.581098],[-58.474682,-34.580842],[-58.474921,-34.580566],[-58.474996,-34.580471],[-58.475424,-34.579958],[-58.475499,-34.57994],[-58.476669,-34.579664],[-58.477223,-34.579533],[-58.478988,-34.579125],[-58.478655,-34.578928],[-58.478199,-34.578669],[-58.477773,-34.578427],[-58.477333,-34.578177],[-58.47715,-34.578073],[-58.475594,-34.57719],[-58.475007,-34.576857],[-58.474979,-34.576841],[-58.474851,-34.576768],[-58.474619,-34.576636],[-58.473829,-34.576186],[-58.473734,-34.576135],[-58.473685,-34.576108],[-58.473547,-34.576033],[-58.472887,-34.575655],[-58.472742,-34.575572],[-58.471958,-34.57512],[-58.471806,-34.575033],[-58.470865,-34.574496],[-58.469926,-34.57396],[-58.469134,-34.573509],[-58.468288,-34.573027],[-58.468081,-34.572909],[-58.467364,-34.572496],[-58.466037,-34.573336],[-58.464992,-34.573995],[-58.463356,-34.575008],[-58.463187,-34.575105],[-58.462376,-34.576032],[-58.462247,-34.576167],[-58.461605,-34.576837],[-58.460633,-34.577853],[-58.460547,-34.577943]]]]}}]}